LEMUR-1                 
1 40044U 14033AL  26174.96352892  .00001509  00000+0  17837-3 0  9990
2 40044  97.7884 324.6182 0049398  56.9887 303.6061 14.85268010646470
LEMUR-2-GREENBERG       
1 42837U 17042N   26175.01318688  .00014349  00000+0  47334-3 0  9998
2 42837  97.3823 355.6073 0007872 348.5302  11.5759 15.31508669489436
LEMUR-2-ANDIS           
1 42838U 17042P   26175.02674418  .00019089  00000+0  56192-3 0  9994
2 42838  97.3681 355.8287 0007597 346.3498  13.7539 15.35080011489502
LEMUR-2-MONSON          
1 42839U 17042Q   26175.23324174  .00013691  00000+0  50056-3 0  9995
2 42839  97.4085 355.7880 0005582 339.0351  21.0659 15.28180820489246
LEMUR-2-FURIAUS         
1 42840U 17042R   26175.01175482  .00015169  00000+0  51691-3 0  9997
2 42840  97.3773 353.5457 0007721  47.6005 312.5888 15.30444698489254
LEMUR-2-PETERG          
1 42841U 17042S   26175.21084335  .00020846  00000+0  63241-3 0  9998
2 42841  97.3996   0.2534 0002736 324.0393  36.0666 15.34133005489519
LEMUR-2-DEMBITZ         
1 42842U 17042T   26175.03147034  .00013832  00000+0  47138-3 0  9999
2 42842  97.3828 356.5944 0006155   4.7576 355.3722 15.30475147489398
LEMUR-2-ZACHARY         
1 42845U 17042W   26175.28902450  .00042359  00000+0  73327-3 0  9995
2 42845  97.3600   7.0791 0002403   0.1231   0.0021 15.50811272490301
LEMUR-2-AMANDA-SVANTE   
1 48269U 21034B   26175.20462039  .00028516  00000+0  84921-3 0  9994
2 48269  97.5759 253.6764 0003071 187.6985 172.4211 15.34657438282131
LEMUR-2-SPECIAL-K       
1 48273U 21034F   26175.18113034  .00146578  00000+0  13957-2 0  9993
2 48273  97.5651 262.5537 0004934 222.5540 137.5338 15.66336131282781
LEMUR-2-EMBRIONOVIS     
1 56970U 23084AQ  26174.96978428  .00011928  00000+0  32419-3 0  9999
2 56970  97.6293 319.4304 0007464 291.9716  68.0734 15.37695104168728
LEMUR-2-DEVERILL-M-T    
1 57391U 23100F   26175.05763100  .00024808  00000+0  62195-3 0  9991
2 57391  99.4473 215.8005 0005712  26.6014 333.5518 15.40051625162307
LEMUR-2-BASS            
1 58259U 23174D   26175.21330653  .00015631  00000+0  35247-3 0  9999
2 58259  97.3847 260.0245 0008081 140.7765 219.4070 15.43298276146444
LEMUR-2-JK0903EM1407    
1 58336U 23174CJ  26175.23679634  .00025327  00000+0  42170-3 0  9998
2 58336  97.3925 265.9063 0005313  99.6558 260.5295 15.51998783146823
LEMUR-2-MJR092620       
1 58340U 23174CN  26175.21846075  .00017376  00000+0  36856-3 0  9995
2 58340  97.3977 265.3775 0006951  97.2924 262.9115 15.45101356146731
LEMUR-2-NIMBUS2000      
1 58899U 24022A   26175.16083100  .00020187  00000+0  50252-3 0  9993
2 58899  97.4110  25.2502 0010325  94.7377 265.5048 15.40240138133349
LEMUR-2-VALHALLA        
1 58900U 24022B   26175.09364505  .00014388  00000+0  36353-3 0  9991
2 58900  97.4107  25.1691 0010838  91.0841 269.1647 15.39853892133330
LEMUR-2-CAEL            
1 58903U 24022E   26175.16253327  .00015240  00000+0  36880-3 0  9994
2 58903  97.4090  26.1871 0009067  76.8905 283.3353 15.41171806133411
LEMUR-2-JOHNNYTRUONG    
1 59146U 24043BA  26174.94641803  .00036131  00000+0  43191-3 0  9997
2 59146  97.5376 327.0706 0004909 156.2906 203.8578 15.60916801129091
LEMUR-2-TOMATOKECHUP    
1 60471U 24149D   26175.20786134  .00009495  00000+0  27177-3 0  9993
2 60471  97.3798 257.2727 0002057 162.3285 197.8031 15.36157849103244
LEMUR-2-STELLA          
1 60533U 24149BT  26175.16356701  .00009808  00000+0  57577-3 0  9995
2 60533  97.6735 257.6491 0001484  95.7079 264.4320 15.11934480101553
LEMUR-2-MARHISYAM       
1 60536U 24149BW  26175.21263513  .00008476  00000+0  50589-3 0  9998
2 60536  97.6882 258.1549 0003458 104.9077 255.2536 15.11376723101549
LEMUR-2-AHMED-ASRAR     
1 60576U 24149DN  26175.17385892  .00010760  00000+0  61548-3 0  9998
2 60576  97.7003 260.2357 0001179  25.4796 334.6492 15.12845830101626
LEMUR-2-LLOYD           
1 60577U 24149DP  26175.20244535  .00008342  00000+0  52624-3 0  9999
2 60577  97.6745 256.3353 0005238 121.9482 238.2256 15.09352899101457
LEMUR-2-SQUIRRELCOMM    
1 60578U 24149DQ  26175.09365886  .00005361  00000+0  35995-3 0  9990
2 60578  97.6715 255.9831 0005991  42.2093 317.9594 15.07219763101449
LEMUR-2-SIERRINI        
1 60579U 24149DR  26175.17139564  .00010373  00000+0  62308-3 0  9999
2 60579  97.6842 257.7945 0006236 145.6940 214.4694 15.11071559101513
LEMUR-2-WILSON          
1 62694U 25009CP  26175.18885050  .00001565  00000+0  14761-3 0  9997
2 62694  97.7026 253.5307 0003827  38.7823 321.3672 14.95192351 78409
LEMUR-2-STAR-FOX        
1 62696U 25009CR  26175.21848216  .00006528  00000+0  49477-3 0  9992
2 62696  97.6951 256.7769 0004378  96.6023 263.5700 15.02589802 78613
LEMUR-2-ARIANNA         
1 62699U 25009CU  26175.21691439  .00006424  00000+0  48720-3 0  9993
2 62699  97.6893 256.5439 0004757 101.2829 258.8931 15.02568487 78610
LEMUR-2-ALISIA          
1 62706U 25009DB  26175.19351192  .00006591  00000+0  49615-3 0  9997
2 62706  97.6933 257.3147 0002649 185.9440 174.1754 15.02847532101212
